{"fetched_at":"2026-07-10T07:59:19.508Z","source":"https://celestrak.org/NORAD/elements/gp.php?NAME=SENTINEL&FORMAT=JSON","constellation":"sentinel-3","records":[{"OBJECT_NAME":"SENTINEL-3A","OBJECT_ID":"2016-011A","EPOCH":"2026-07-09T19:09:40.499424","CLASSIFICATION_TYPE":"U","MEAN_MOTION":14.26738793,"ECCENTRICITY":0.0001399,"INCLINATION":98.6239,"RA_OF_ASC_NODE":257.8562,"ARG_OF_PERICENTER":91.8963,"MEAN_ANOMALY":268.2377,"EPHEMERIS_TYPE":0,"NORAD_CAT_ID":41335,"ELEMENT_SET_NO":999,"REV_AT_EPOCH":54128,"BSTAR":0.000034352,"MEAN_MOTION_DOT":3.9e-7,"MEAN_MOTION_DDOT":0},{"OBJECT_NAME":"SENTINEL-3B","OBJECT_ID":"2018-039A","EPOCH":"2026-07-09T03:22:05.749248","CLASSIFICATION_TYPE":"U","MEAN_MOTION":14.2674092,"ECCENTRICITY":0.0001006,"INCLINATION":98.6239,"RA_OF_ASC_NODE":257.3566,"ARG_OF_PERICENTER":120.1387,"MEAN_ANOMALY":239.9893,"EPHEMERIS_TYPE":0,"NORAD_CAT_ID":43437,"ELEMENT_SET_NO":999,"REV_AT_EPOCH":42725,"BSTAR":0.000038280816,"MEAN_MOTION_DOT":4.9e-7,"MEAN_MOTION_DDOT":0}]}
